NORAD_CAT_ID,OBJECT_NAME,OBJECT_TYPE,EPOCH,MEAN_MOTION,ECCENTRICITY,INCLINATION,RA_OF_ASC_NODE,ARG_OF_PERICENTER,MEAN_ANOMALY,BSTAR,MEAN_MOTION_DOT,MEAN_MOTION_DDOT,TLE_LINE0,TLE_LINE1,TLE_LINE2,SEMIMAJOR_AXIS,PERIOD,APOGEE,PERIGEE,DECAYED
51988.0,STARLINK-3640,PAYLOAD,2022-09-19 14:09:30,15.08845365,0.0001803,53.22,327.3584,48.4561,311.6586,0.00027447,4.083e-05,0.0,0 STARLINK-3640,1 51988U 22025AJ  22262.58993901  .00004083  00000-0  27447-3 0  9992,2 51988  53.2200 327.3584 0001803  48.4561 311.6586 15.08845365 29777,6917.864000000001,95.437,540.976,538.482,0.0
51988.0,STARLINK-3640,PAYLOAD,2022-09-20 01:17:13,15.0884291,0.0001748,53.2199,325.2773,50.2883,309.8263,7.6141e-05,9.24e-06,0.0,0 STARLINK-3640,1 51988U 22025AJ  22263.05362709  .00000924  00000-0  76141-4 0  9997,2 51988  53.2199 325.2773 0001748  50.2883 309.8263 15.08842910 30953,6917.871,95.437,540.946,538.5269999999998,0.0
51988.0,STARLINK-3640,PAYLOAD,2022-09-20 06:03:23,15.08834619,0.0001888,53.2201,324.3865,45.3598,314.7548,1.6803999999999996e-06,-2.61e-06,0.0,0 STARLINK-3640,1 51988U 22025AJ  22263.25235483 -.00000261  00000-0  16804-5 0  9993,2 51988  53.2201 324.3865 0001888  45.3598 314.7548 15.08834619 30983,6917.897,95.438,541.068,538.456,0.0
51988.0,STARLINK-3640,PAYLOAD,2022-09-21 04:18:46,15.08844936,0.0002008999999999,53.2199,320.2241,40.0526,320.0614,-6.7109e-05,-1.356e-05,0.0,0 STARLINK-3640,1 51988U 22025AJ  22264.17970972 -.00001356  00000-0 -67109-4 0  9994,2 51988  53.2199 320.2241 0002009  40.0526 320.0614 15.08844936 31125,6917.865,95.437,541.12,538.341,0.0
51988.0,STARLINK-3640,PAYLOAD,2022-09-21 05:54:10,15.08841794,0.0001871,53.2198,319.9257,42.7895,317.3242,-9.4878e-05,-1.798e-05,0.0,0 STARLINK-3640,1 51988U 22025AJ  22264.24595184 -.00001798  00000-0 -94878-4 0  9993,2 51988  53.2198 319.9257 0001871  42.7895 317.3242 15.08841794 30023,6917.875,95.437,541.034,538.446,0.0
51988.0,STARLINK-3640,PAYLOAD,2022-09-22 10:31:07,15.08819279,0.000199,53.219,314.5717,45.4326,314.6828,0.0001447,2.014e-05,0.0,0 STARLINK-3640,1 51988U 22025AJ  22265.43827922  .00002014  00000-0  14470-3 0  9992,2 51988  53.2190 314.5717 0001990  45.4326 314.6828 15.08819279 30201,6917.944,95.439,541.185,538.432,0.0
51988.0,STARLINK-3640,PAYLOAD,2022-09-22 23:14:12,15.08828756,0.0001871,53.2185,312.192,48.904,311.2113,4.149100000000001e-05,3.72e-06,0.0,0 STARLINK-3640,1 51988U 22025AJ  22265.96819711  .00000372  00000-0  41491-4 0  9996,2 51988  53.2185 312.1920 0001871  48.9040 311.2113 15.08828756 31395,6917.915,95.438,541.0740000000002,538.485,0.0
51988.0,STARLINK-3640,PAYLOAD,2022-09-23 10:21:53,15.08834511,0.0001819,53.2192,310.1115,48.4443,311.6705,8.672e-05,1.092e-05,0.0,0 STARLINK-3640,1 51988U 22025AJ  22266.43187465  .00001092  00000-0  86720-4 0  9997,2 51988  53.2192 310.1115 0001819  48.4443 311.6705 15.08834511 31466,6917.897,95.438,541.021,538.504,0.0
51988.0,STARLINK-3640,PAYLOAD,2022-09-23 23:04:58,15.0884204,0.0001801,53.2194,307.7325,43.7367,316.3767,0.0001349,1.86e-05,0.0,0 STARLINK-3640,1 51988U 22025AJ  22266.96178759  .00001860  00000-0  13490-3 0  9997,2 51988  53.2194 307.7325 0001801  43.7367 316.3767 15.08842040 31542,6917.874,95.437,540.985,538.493,0.0
51988.0,STARLINK-3640,PAYLOAD,2022-09-24 10:12:41,15.0883537,0.0001911,53.2187,305.6496,39.8319,320.2813,6.1785e-05,6.95e-06,0.0,0 STARLINK-3640,1 51988U 22025AJ  22267.42547552  .00000695  00000-0  61785-4 0  9996,2 51988  53.2187 305.6496 0001911  39.8319 320.2813 15.08835370 31617,6917.895,95.438,541.082,538.438,0.0
51988.0,STARLINK-3640,PAYLOAD,2022-09-24 19:44:59,15.08841165,0.0001774,53.219,303.8667,44.8271,315.2864,0.00010893,1.446e-05,0.0,0 STARLINK-3640,1 51988U 22025AJ  22267.82291067  .00001446  00000-0  10893-3 0  9995,2 51988  53.2190 303.8667 0001774  44.8271 315.2864 15.08841165 30563,6917.877,95.437,540.969,538.515,0.0
51988.0,STARLINK-3640,PAYLOAD,2022-09-24 22:55:45,15.08845777,0.0001610999999999,53.2184,303.2687,45.562,314.5504,0.00010063,1.314e-05,0.0,0 STARLINK-3640,1 51988U 22025AJ  22267.95538725  .00001314  00000-0  10063-3 0  9997,2 51988  53.2184 303.2687 0001611  45.5620 314.5504 15.08845777 31699,6917.863,95.437,540.842,538.613,0.0
51988.0,STARLINK-3640,PAYLOAD,2022-09-25 10:03:26,15.08849554,0.0001264,53.2193,301.1876,67.6549,292.4577,0.00010538,1.39e-05,0.0,0 STARLINK-3640,1 51988U 22025AJ  22268.41906100  .00001390  00000-0  10538-3 0  9996,2 51988  53.2193 301.1876 0001264  67.6549 292.4577 15.08849554 30651,6917.851,95.437,540.591,538.842,0.0
51988.0,STARLINK-3640,PAYLOAD,2022-09-25 22:46:32,15.08838572,0.0001720999999999,53.2193,298.8113,46.4523,313.6612,3.6093e-05,2.86e-06,0.0,0 STARLINK-3640,1 51988U 22025AJ  22268.94899019  .00000286  00000-0  36093-4 0  9992,2 51988  53.2193 298.8113 0001721  46.4523 313.6612 15.08838572 31848,6917.885,95.438,540.94,538.559,0.0
51988.0,STARLINK-3640,PAYLOAD,2022-09-26 08:18:52,15.08830943,0.0001864,53.2188,297.0273,44.4504,315.6637,-3.0094e-05,-7.67e-06,0.0,0 STARLINK-3640,1 51988U 22025AJ  22269.34643815 -.00000767  00000-0 -30094-4 0  9999,2 51988  53.2188 297.0273 0001864  44.4504 315.6637 15.08830943 30791,6917.908,95.438,541.063,538.484,0.0
51988.0,STARLINK-3640,PAYLOAD,2022-09-26 19:26:33,15.08838337,0.0001875,53.2189,294.947,46.0744,314.0402,-5.1684e-06,-3.700000000000001e-06,0.0,0 STARLINK-3640,1 51988U 22025AJ  22269.81011412 -.00000370  00000-0 -51684-5 0  9992,2 51988  53.2189 294.9470 0001875  46.0744 314.0402 15.08838337 31972,6917.885,95.438,541.048,538.453,0.0
51988.0,STARLINK-3640,PAYLOAD,2022-09-27 08:09:38,15.08844787,0.0001829,53.2188,292.5679,52.3064,307.8094,2.6601e-05,1.35e-06,0.0,0 STARLINK-3640,1 51988U 22025AJ  22270.34002858  .00000135  00000-0  26601-4 0  9993,2 51988  53.2188 292.5679 0001829  52.3064 307.8094 15.08844787 30949,6917.866,95.437,540.996,538.465,0.0
51988.0,STARLINK-3640,PAYLOAD,2022-09-28 08:00:26,15.08824572,0.0001875999999999,53.2187,288.1077,43.9427,316.1714,1.7082e-05,-1.6e-07,0.0,0 STARLINK-3640,1 51988U 22025AJ  22271.33364281 -.00000016  00000-0  17082-4 0  9996,2 51988  53.2187 288.1077 0001876  43.9427 316.1714 15.08824572 31091,6917.928000000001,95.439,541.09,538.495,0.0
51988.0,STARLINK-3640,PAYLOAD,2022-09-29 11:01:59,15.08850552,0.0001882,53.219,283.0524,45.6919,314.4227,-0.00010688,-1.989e-05,0.0,0 STARLINK-3640,1 51988U 22025AJ  22272.45971718 -.00001989  00000-0 -10688-3 0  9994,2 51988  53.2190 283.0524 0001882  45.6919 314.4227 15.08850552 31264,6917.848000000001,95.437,541.015,538.411,0.0
51988.0,STARLINK-3640,PAYLOAD,2022-09-30 01:20:27,15.08819204,0.0001702,53.2189,280.3777,55.4351,304.6802,0.00038939,5.911e-05,0.0,0 STARLINK-3640,1 51988U 22025AJ  22273.05587865  .00005911  00000-0  38939-3 0  9993,2 51988  53.2189 280.3777 0001702  55.4351 304.6802 15.08819204 32464,6917.944,95.439,540.986,538.632,0.0
51988.0,STARLINK-3640,PAYLOAD,2022-09-30 07:42:01,15.08821733,0.0001726,53.2195,279.1883,50.6102,309.5042,0.00021593,3.148e-05,0.0,0 STARLINK-3640,1 51988U 22025AJ  22273.32084682  .00003148  00000-0  21593-3 0  9990,2 51988  53.2195 279.1883 0001726  50.6102 309.5042 15.08821733 31393,6917.936,95.439,540.995,538.607,0.0
51988.0,STARLINK-3640,PAYLOAD,2022-09-30 17:14:19,15.08838717,0.0001894,53.2192,277.403,46.2953,313.8196,0.00014355,1.997e-05,0.0,0 STARLINK-3640,1 51988U 22025AJ  22273.71828008  .00001997  00000-0  14355-3 0  9999,2 51988  53.2192 277.4030 0001894  46.2953 313.8196 15.08838717 31451,6917.884,95.438,541.06,538.439,0.0
51988.0,STARLINK-3640,PAYLOAD,2022-10-01 04:22:00,15.08852566,0.0001886999999999,53.2188,275.321,43.6999,316.4143,0.00011068,1.474e-05,0.0,0 STARLINK-3640,1 51988U 22025AJ  22274.18195222  .00001474  00000-0  11068-3 0  9994,2 51988  53.2188 275.3210 0001887  43.6999 316.4143 15.08852566 32636,6917.842,95.437,541.012,538.4019999999998,0.0
51988.0,STARLINK-3640,PAYLOAD,2022-10-01 07:32:47,15.08841287,0.0001839,53.2188,274.7252,44.7621,315.3519,5.1009e-05,5.24e-06,0.0,0 STARLINK-3640,1 51988U 22025AJ  22274.31443992  .00000524  00000-0  51009-4 0  9994,2 51988  53.2188 274.7252 0001839  44.7621 315.3519 15.08841287 32651,6917.876,95.437,541.014,538.469,0.0
51988.0,STARLINK-3640,PAYLOAD,2022-10-01 17:05:06,15.088453,0.000199,53.2191,272.9424,45.9457,314.1699,7.55e-05,9.14e-06,0.0,0 STARLINK-3640,1 51988U 22025AJ  22274.71187691  .00000914  00000-0  75500-4 0  9994,2 51988  53.2191 272.9424 0001990  45.9457 314.1699 15.08845300 31604,6917.864000000001,95.437,541.106,538.3530000000002,0.0
51988.0,STARLINK-3640,PAYLOAD,2022-10-02 07:23:34,15.08837667,0.0001836,53.2185,270.267,44.2755,315.8384,6.7208e-05,7.82e-06,0.0,0 STARLINK-3640,1 51988U 22025AJ  22275.30804052  .00000782  00000-0  67208-4 0  9996,2 51988  53.2185 270.2670 0001836  44.2755 315.8384 15.08837667 31698,6917.888000000001,95.438,541.023,538.482,0.0
51988.0,STARLINK-3640,PAYLOAD,2022-10-02 16:55:53,15.08844742,0.0001902,53.2194,268.4817,44.2536,315.8608,7.4489e-05,8.98e-06,0.0,0 STARLINK-3640,1 51988U 22025AJ  22275.70547604  .00000898  00000-0  74489-4 0  9994,2 51988  53.2194 268.4817 0001902  44.2536 315.8608 15.08844742 31759,6917.866,95.437,541.047,538.415,0.0
51988.0,STARLINK-3640,PAYLOAD,2022-10-03 08:49:43,15.08852241,0.0001786999999999,53.2186,265.5092,42.3339,317.7791,5.9897e-05,6.66e-06,0.0,0 STARLINK-3640,1 51988U 22025AJ  22276.36786868  .00000666  00000-0  59897-4 0  9993,2 51988  53.2186 265.5092 0001787  42.3339 317.7791 15.08852241 31852,6917.843000000003,95.437,540.944,538.472,0.0
51988.0,STARLINK-3640,PAYLOAD,2022-10-03 16:46:39,15.08850256,0.0001595,53.2188,264.0221,47.4228,312.6899,0.00017036,2.425e-05,0.0,0 STARLINK-3640,1 51988U 22025AJ  22276.69906610  .00002425  00000-0  17036-3 0  9991,2 51988  53.2188 264.0221 0001595  47.4228 312.6899 15.08850256 31905,6917.849,95.437,540.817,538.611,0.0
